CCSDS_OMM_VERS = 2.0
CREATION_DATE  = 
ORIGINATOR     = 

OBJECT_NAME    = STARLINK-34698
OBJECT_ID      = 2025-259Z
CENTER_NAME    = EARTH
REF_FRAME      = TEME
TIME_SYSTEM    = UTC
MEAN_ELEMENT_THEORY = SGP/SGP4

EPOCH          = 2025-12-02T12:00:05.998752
MEAN_MOTION    = 15.50517860
ECCENTRICITY   = .0001406
INCLINATION    = 42.9995
RA_OF_ASC_NODE = 107.1268
ARG_OF_PERICENTER = 253.2015
MEAN_ANOMALY   = 59.4171

EPHEMERIS_TYPE = 0
CLASSIFICATION_TYPE = U
NORAD_CAT_ID   = 66445
ELEMENT_SET_NO = 999
REV_AT_EPOCH   = 452
BSTAR          = .10058E-2
MEAN_MOTION_DOT = .5898E-3
MEAN_MOTION_DDOT = 0

CCSDS_OMM_VERS = 2.0
CREATION_DATE  = 
ORIGINATOR     = 

OBJECT_NAME    = STARLINK-34986
OBJECT_ID      = 2025-259AA
CENTER_NAME    = EARTH
REF_FRAME      = TEME
TIME_SYSTEM    = UTC
MEAN_ELEMENT_THEORY = SGP/SGP4

EPOCH          = 2025-12-02T12:00:05.998752
MEAN_MOTION    = 15.50538374
ECCENTRICITY   = .0001474
INCLINATION    = 42.9996
RA_OF_ASC_NODE = 107.1214
ARG_OF_PERICENTER = 253.8645
MEAN_ANOMALY   = 60.6565

EPHEMERIS_TYPE = 0
CLASSIFICATION_TYPE = U
NORAD_CAT_ID   = 66446
ELEMENT_SET_NO = 999
REV_AT_EPOCH   = 463
BSTAR          = .95297E-3
MEAN_MOTION_DOT = .55883E-3
MEAN_MOTION_DDOT = 0

CCSDS_OMM_VERS = 2.0
CREATION_DATE  = 
ORIGINATOR     = 

OBJECT_NAME    = STARLINK-34851
OBJECT_ID      = 2025-259AB
CENTER_NAME    = EARTH
REF_FRAME      = TEME
TIME_SYSTEM    = UTC
MEAN_ELEMENT_THEORY = SGP/SGP4

EPOCH          = 2025-12-02T12:00:05.998752
MEAN_MOTION    = 15.50597982
ECCENTRICITY   = .0001763
INCLINATION    = 42.9996
RA_OF_ASC_NODE = 107.1120
ARG_OF_PERICENTER = 269.2585
MEAN_ANOMALY   = 49.2063

EPHEMERIS_TYPE = 0
CLASSIFICATION_TYPE = U
NORAD_CAT_ID   = 66447
ELEMENT_SET_NO = 999
REV_AT_EPOCH   = 452
BSTAR          = -.1529E-2
MEAN_MOTION_DOT = -.8909E-3
MEAN_MOTION_DDOT = 0

CCSDS_OMM_VERS = 2.0
CREATION_DATE  = 
ORIGINATOR     = 

OBJECT_NAME    = STARLINK-35355
OBJECT_ID      = 2025-259AC
CENTER_NAME    = EARTH
REF_FRAME      = TEME
TIME_SYSTEM    = UTC
MEAN_ELEMENT_THEORY = SGP/SGP4

EPOCH          = 2025-12-02T12:00:05.998752
MEAN_MOTION    = 15.50545626
ECCENTRICITY   = .0001484
INCLINATION    = 42.9998
RA_OF_ASC_NODE = 107.1076
ARG_OF_PERICENTER = 252.4719
MEAN_ANOMALY   = 67.7965

EPHEMERIS_TYPE = 0
CLASSIFICATION_TYPE = U
NORAD_CAT_ID   = 66448
ELEMENT_SET_NO = 999
REV_AT_EPOCH   = 463
BSTAR          = .88603E-3
MEAN_MOTION_DOT = .51921E-3
MEAN_MOTION_DDOT = 0

CCSDS_OMM_VERS = 2.0
CREATION_DATE  = 
ORIGINATOR     = 

OBJECT_NAME    = STARLINK-34720
OBJECT_ID      = 2025-259AD
CENTER_NAME    = EARTH
REF_FRAME      = TEME
TIME_SYSTEM    = UTC
MEAN_ELEMENT_THEORY = SGP/SGP4

EPOCH          = 2025-12-02T12:00:05.998752
MEAN_MOTION    = 15.50547493
ECCENTRICITY   = .0001389
INCLINATION    = 42.9998
RA_OF_ASC_NODE = 107.1025
ARG_OF_PERICENTER = 250.6783
MEAN_ANOMALY   = 71.5021

EPHEMERIS_TYPE = 0
CLASSIFICATION_TYPE = U
NORAD_CAT_ID   = 66449
ELEMENT_SET_NO = 999
REV_AT_EPOCH   = 452
BSTAR          = .88456E-3
MEAN_MOTION_DOT = .51837E-3
MEAN_MOTION_DDOT = 0

CCSDS_OMM_VERS = 2.0
CREATION_DATE  = 
ORIGINATOR     = 

OBJECT_NAME    = STARLINK-35334
OBJECT_ID      = 2025-259AE
CENTER_NAME    = EARTH
REF_FRAME      = TEME
TIME_SYSTEM    = UTC
MEAN_ELEMENT_THEORY = SGP/SGP4

EPOCH          = 2025-12-02T12:00:05.998752
MEAN_MOTION    = 15.50536611
ECCENTRICITY   = .0001435
INCLINATION    = 42.9998
RA_OF_ASC_NODE = 107.0969
ARG_OF_PERICENTER = 244.3882
MEAN_ANOMALY   = 79.7094

EPHEMERIS_TYPE = 0
CLASSIFICATION_TYPE = U
NORAD_CAT_ID   = 66450
ELEMENT_SET_NO = 999
REV_AT_EPOCH   = 463
BSTAR          = .95664E-3
MEAN_MOTION_DOT = .56098E-3
MEAN_MOTION_DDOT = 0

CCSDS_OMM_VERS = 2.0
CREATION_DATE  = 
ORIGINATOR     = 

OBJECT_NAME    = VIASAT-3 F2
OBJECT_ID      = 2025-261A
CENTER_NAME    = EARTH
REF_FRAME      = TEME
TIME_SYSTEM    = UTC
MEAN_ELEMENT_THEORY = SGP/SGP4

EPOCH          = 2025-12-01T18:36:31.725216
MEAN_MOTION    = 2.28150340
ECCENTRICITY   = .23416718
INCLINATION    = 5.5759
RA_OF_ASC_NODE = 293.3594
ARG_OF_PERICENTER = 183.7944
MEAN_ANOMALY   = 144.3606

EPHEMERIS_TYPE = 0
CLASSIFICATION_TYPE = U
NORAD_CAT_ID   = 66454
ELEMENT_SET_NO = 999
REV_AT_EPOCH   = 39
BSTAR          = 0
MEAN_MOTION_DOT = -.46E-6
MEAN_MOTION_DDOT = 0

CCSDS_OMM_VERS = 2.0
CREATION_DATE  = 
ORIGINATOR     = 

OBJECT_NAME    = ATLAS 5 CENTAUR R/B
OBJECT_ID      = 2025-261B
CENTER_NAME    = EARTH
REF_FRAME      = TEME
TIME_SYSTEM    = UTC
MEAN_ELEMENT_THEORY = SGP/SGP4

EPOCH          = 2025-12-02T05:50:10.707936
MEAN_MOTION    = 2.28259428
ECCENTRICITY   = .23297418
INCLINATION    = 6.1597
RA_OF_ASC_NODE = 292.6661
ARG_OF_PERICENTER = 184.3734
MEAN_ANOMALY   = 159.3781

EPHEMERIS_TYPE = 0
CLASSIFICATION_TYPE = U
NORAD_CAT_ID   = 66455
ELEMENT_SET_NO = 999
REV_AT_EPOCH   = 40
BSTAR          = 0
MEAN_MOTION_DOT = -.48E-6
MEAN_MOTION_DDOT = 0

CCSDS_OMM_VERS = 2.0
CREATION_DATE  = 
ORIGINATOR     = 

OBJECT_NAME    = STARLINK-35643
OBJECT_ID      = 2025-262A
CENTER_NAME    = EARTH
REF_FRAME      = TEME
TIME_SYSTEM    = UTC
MEAN_ELEMENT_THEORY = SGP/SGP4

EPOCH          = 2025-12-02T12:00:05.998752
MEAN_MOTION    = 15.64301457
ECCENTRICITY   = .0001599
INCLINATION    = 42.9991
RA_OF_ASC_NODE = 131.1935
ARG_OF_PERICENTER = 262.7639
MEAN_ANOMALY   = 25.4136

EPHEMERIS_TYPE = 0
CLASSIFICATION_TYPE = U
NORAD_CAT_ID   = 66456
ELEMENT_SET_NO = 999
REV_AT_EPOCH   = 399
BSTAR          = -.24633E-1
MEAN_MOTION_DOT = -.2111605E-1
MEAN_MOTION_DDOT = 0

CCSDS_OMM_VERS = 2.0
CREATION_DATE  = 
ORIGINATOR     = 

OBJECT_NAME    = STARLINK-35466
OBJECT_ID      = 2025-262B
CENTER_NAME    = EARTH
REF_FRAME      = TEME
TIME_SYSTEM    = UTC
MEAN_ELEMENT_THEORY = SGP/SGP4

EPOCH          = 2025-12-02T12:00:05.998752
MEAN_MOTION    = 15.64298719
ECCENTRICITY   = .0001555
INCLINATION    = 42.9991
RA_OF_ASC_NODE = 131.1836
ARG_OF_PERICENTER = 264.1044
MEAN_ANOMALY   = 27.9074

EPHEMERIS_TYPE = 0
CLASSIFICATION_TYPE = U
NORAD_CAT_ID   = 66457
ELEMENT_SET_NO = 999
REV_AT_EPOCH   = 399
BSTAR          = -.24573E-1
MEAN_MOTION_DOT = -.2106936E-1
MEAN_MOTION_DDOT = 0

CCSDS_OMM_VERS = 2.0
CREATION_DATE  = 
ORIGINATOR     = 

OBJECT_NAME    = STARLINK-35684
OBJECT_ID      = 2025-262C
CENTER_NAME    = EARTH
REF_FRAME      = TEME
TIME_SYSTEM    = UTC
MEAN_ELEMENT_THEORY = SGP/SGP4

EPOCH          = 2025-12-02T12:00:05.998752
MEAN_MOTION    = 15.64297802
ECCENTRICITY   = .0001623
INCLINATION    = 42.9992
RA_OF_ASC_NODE = 131.1881
ARG_OF_PERICENTER = 262.2251
MEAN_ANOMALY   = 27.8704

EPHEMERIS_TYPE = 0
CLASSIFICATION_TYPE = U
NORAD_CAT_ID   = 66458
ELEMENT_SET_NO = 999
REV_AT_EPOCH   = 399
BSTAR          = -.24565E-1
MEAN_MOTION_DOT = -.2106313E-1
MEAN_MOTION_DDOT = 0

CCSDS_OMM_VERS = 2.0
CREATION_DATE  = 
ORIGINATOR     = 

OBJECT_NAME    = STARLINK-35449
OBJECT_ID      = 2025-262D
CENTER_NAME    = EARTH
REF_FRAME      = TEME
TIME_SYSTEM    = UTC
MEAN_ELEMENT_THEORY = SGP/SGP4

EPOCH          = 2025-12-02T12:00:05.998752
MEAN_MOTION    = 15.64299177
ECCENTRICITY   = .0001648
INCLINATION    = 42.9992
RA_OF_ASC_NODE = 131.1786
ARG_OF_PERICENTER = 262.2967
MEAN_ANOMALY   = 31.6328

EPHEMERIS_TYPE = 0
CLASSIFICATION_TYPE = U
NORAD_CAT_ID   = 66459
ELEMENT_SET_NO = 999
REV_AT_EPOCH   = 399
BSTAR          = -.24592E-1
MEAN_MOTION_DOT = -.2108472E-1
MEAN_MOTION_DDOT = 0

