STARLINK-34698          
1 66445U 25259Z   25336.50006943  .00058980  00000+0  10058-2 0  9999
2 66445  42.9995 107.1268 0001406 253.2015  59.4171 15.50517860  4525
STARLINK-34986          
1 66446U 25259AA  25336.50006943  .00055883  00000+0  95297-3 0  9998
2 66446  42.9996 107.1214 0001474 253.8645  60.6565 15.50538374  4634
STARLINK-34851          
1 66447U 25259AB  25336.50006943 -.00089090  00000+0 -15290-2 0  9992
2 66447  42.9996 107.1120 0001763 269.2585  49.2063 15.50597982  4520
STARLINK-35355          
1 66448U 25259AC  25336.50006943  .00051921  00000+0  88603-3 0  9992
2 66448  42.9998 107.1076 0001484 252.4719  67.7965 15.50545626  4632
STARLINK-34720          
1 66449U 25259AD  25336.50006943  .00051837  00000+0  88456-3 0  9995
2 66449  42.9998 107.1025 0001389 250.6783  71.5021 15.50547493  4520
STARLINK-35334          
1 66450U 25259AE  25336.50006943  .00056098  00000+0  95664-3 0  9990
2 66450  42.9998 107.0969 0001435 244.3882  79.7094 15.50536611  4632
VIASAT-3 F2             
1 66454U 25261A   25335.77536719 -.00000046  00000+0  00000+0 0  9993
2 66454   5.5759 293.3594 2341671 183.7944 144.3606  2.28150340   394
ATLAS 5 CENTAUR R/B     
1 66455U 25261B   25336.24317949 -.00000048  00000+0  00000+0 0  9991
2 66455   6.1597 292.6661 2329741 184.3734 159.3781  2.28259428   406
STARLINK-35643          
1 66456U 25262A   25336.50006943 -.02111605  00000+0 -24633-1 0  9996
2 66456  42.9991 131.1935 0001599 262.7639  25.4136 15.64301457  3993
STARLINK-35466          
1 66457U 25262B   25336.50006943 -.02106936  00000+0 -24573-1 0  9991
2 66457  42.9991 131.1836 0001555 264.1044  27.9074 15.64298719  3996
STARLINK-35684          
1 66458U 25262C   25336.50006943 -.02106313  00000+0 -24565-1 0  9992
2 66458  42.9992 131.1881 0001623 262.2251  27.8704 15.64297802  3994
STARLINK-35449          
1 66459U 25262D   25336.50006943 -.02108472  00000+0 -24592-1 0  9991
2 66459  42.9992 131.1786 0001648 262.2967  31.6328 15.64299177  3992
